ONEWEB-0201             
1 48241U 21031AH  23253.66704232  .00000099  00000+0  23264-3 0  9998
2 48241  87.9008 130.8850 0001754  73.4188 286.7135 13.14501258115623
ONEWEB-0207             
1 48242U 21031AJ  23253.71778054  .00000253  00000+0  64877-3 0  9995
2 48242  87.9006 130.8425 0001551  73.5696 286.5604 13.14501337115548
ONEWEB-0208             
1 48243U 21031AK  23254.15227303 -.00000136  00000+0 -40267-3 0  9990
2 48243  87.9005 130.7731 0001972  69.9251 290.2091 13.14499767115613
ONEWEB-0200             
1 48244U 21031AL  23253.73575465  .00000401  00000+0  10478-2 0  9992
2 48244  87.9006 130.8430 0001969  68.8483 291.2856 13.14505756115495
ONEWEB-0217             
1 48245U 21031AM  23254.36161446  .00000043  00000+0  80336-4 0  9997
2 48245  87.9009 130.7035 0002108  68.2283 291.9071 13.14504465115523
ONEWEB-0211             
1 48767U 21045A   23254.28266932 -.00000963  00000+0 -25937-2 0  9995
2 48767  87.8947 100.2748 0001754  81.5300 278.6029 13.15537976112761
ONEWEB-0223             
1 48768U 21045B   23254.30379309 -.00000070  00000+0 -21925-3 0  9995
2 48768  87.8944 100.2753 0002206  82.3705 277.7675 13.15549750112766
ONEWEB-0230             
1 48769U 21045C   23253.81998531  .00000085  00000+0  19119-3 0  9991
2 48769  87.8964 100.4363 0001822  84.5753 275.5585 13.15543768112936
ONEWEB-0237             
1 48770U 21045D   23253.80943011  .00000172  00000+0  42292-3 0  9990
2 48770  87.8951 100.3564 0002227  90.9874 269.1512 13.15546820112673
ONEWEB-0235             
1 48771U 21045E   23254.08619217  .00000021  00000+0  20832-4 0  9990
2 48771  87.8950 100.3331 0002507  95.6205 264.5212 13.15548739112695
ONEWEB-0242             
1 48772U 21045F   23253.62350486 -.00000167  00000+0 -47724-3 0  9991
2 48772  87.8947 100.4162 0001935  85.0962 275.0390 13.15547731112686
ONEWEB-0241             
1 48773U 21045G   23254.29533815 -.00000072  00000+0 -22640-3 0  9990
2 48773  87.8954 100.3023 0002224  77.2500 282.8879 13.15550609112689
ONEWEB-0243             
1 48774U 21045H   23254.09886604  .00000223  00000+0  55853-3 0  9994
2 48774  87.8946 100.2987 0002108  94.5830 265.5541 13.15550515112688
ONEWEB-0222             
1 48775U 21045J   23253.63196101  .00000109  00000+0  25501-3 0  9990
2 48775  87.8946 100.4287 0002090  82.6048 277.5320 13.15548373112657
ONEWEB-0244             
1 48776U 21045K   23254.10941516  .00000192  00000+0  47680-3 0  9996
2 48776  87.8945 100.3175 0001760  91.9103 268.2228 13.15551977113288
ONEWEB-0247             
1 48777U 21045L   23253.64886322  .00000219  00000+0  54791-3 0  9999
2 48777  87.8959 100.4208 0002316  91.8396 268.3000 13.15550397112679
ONEWEB-0245             
1 48778U 21045M   23254.10097561  .00000169  00000+0  41506-3 0  9995
2 48778  87.8947 100.3458 0002024  77.1727 282.9629 13.15545231112708
ONEWEB-0229             
1 48779U 21045N   23254.09465145  .00000278  00000+0  70461-3 0  9994
2 48779  87.8945 100.3364 0001851  91.5237 268.6105 13.15548854112733
ONEWEB-0228             
1 48780U 21045P   23253.65204425  .00000359  00000+0  91828-3 0  9999
2 48780  87.8946 100.4059 0001819  87.3952 272.7387 13.15552869112592
ONEWEB-0232             
1 48781U 21045Q   23254.33127859  .00000265  00000+0  67053-3 0  9990
2 48781  87.8898 100.3483 0001797  78.3870 281.7461 13.15541614112996
ONEWEB-0231             
1 48782U 21045R   23253.62561764  .00000047  00000+0  90428-4 0  9990
2 48782  87.8957 100.4334 0002008  88.7353 271.4007 13.15549093112616
ONEWEB-0234             
1 48783U 21045S   23254.10737609  .00001524  00000+0  40131-2 0  9993
2 48783  87.8947 100.3216 0001766  74.0586 286.0738 13.15537870112804
ONEWEB-0238             
1 48784U 21045T   23253.58654068  .00000049  00000+0  96913-4 0  9994
2 48784  87.8948 100.4359 0001727  77.5030 282.6293 13.15542569112634
ONEWEB-0240             
1 48785U 21045U   23253.60870900 -.00000078  00000+0 -24140-3 0  9999
2 48785  87.8946 100.4060 0002246  79.8266 280.3118 13.15550854112654
ONEWEB-0246             
1 48786U 21045V   23254.28901494 -.00000045  00000+0 -15439-3 0  9993
2 48786  87.8947 100.2711 0002197  89.5489 270.5893 13.15546890112619
ONEWEB-0210             
1 48787U 21045W   23253.65519996  .00000233  00000+0  58403-3 0  9991
2 48787  87.8947 100.4066 0002116 106.4408 253.6955 13.15550110112583
ONEWEB-0214             
1 48788U 21045X   23253.81786608  .00000022  00000+0  25432-4 0  9999
2 48788  87.8948 100.3629 0001972 108.2685 251.8660 13.15545744112563
ONEWEB-0221             
1 48789U 21045Y   23254.28056417  .00000020  00000+0  18139-4 0  9994
2 48789  87.8951 100.2806 0002053  83.7734 276.3630 13.15546633112733
ONEWEB-0213             
1 48790U 21045Z   23253.81151981  .00000164  00000+0  40072-3 0  9995
2 48790  87.8950 100.3923 0002131  89.1610 270.9764 13.15551599112729
ONEWEB-0212             
1 48791U 21045AA  23254.40098055  .00000080  00000+0  17962-3 0  9993
2 48791  87.8944 100.2554 0001575  79.1654 280.9653 13.15546697112800
ONEWEB-0227             
1 48792U 21045AB  23253.63407247  .00000104  00000+0  24307-3 0  9993
2 48792  87.8949 100.4228 0001897  81.1411 278.9934 13.15545805112648
ONEWEB-0226             
1 48793U 21045AC  23254.08407559  .00000053  00000+0  10636-3 0  9993
2 48793  87.8947 100.3415 0002206  99.3399 260.7980 13.15548927112665
ONEWEB-0224             
1 48794U 21045AD  23253.82210556 -.00000028  00000+0 -10883-3 0  9992
2 48794  87.8960 100.3957 0001930  63.6691 296.4637 13.15548520112556
ONEWEB-0233             
1 48795U 21045AE  23253.81563253  .00000016  00000+0  91123-5 0  9990
2 48795  87.8900 100.4698 0001839  80.6975 279.4364 13.15546368112563
ONEWEB-0190             
1 48796U 21045AF  23253.81365878  .00000057  00000+0  11847-3 0  9992
2 48796  87.8945 100.3924 0002854  94.9580 265.1876 13.15546363112646
ONEWEB-0236             
1 48797U 21045AG  23254.28688792 -.00000296  00000+0 -82090-3 0  9993
2 48797  87.8948 100.2700 0001829  81.5166 278.6172 13.15548337112599
ONEWEB-0248             
1 48798U 21045AH  23253.61506464  .00000002  00000+0 -29960-4 0  9997
2 48798  87.8947 100.4195 0002573  78.3635 281.7784 13.15549931112664
ONEWEB-0225             
1 48799U 21045AJ  23254.09252928  .00000126  00000+0  30053-3 0  9994
2 48799  87.8941 100.3356 0002334  88.8705 271.2693 13.15549882112754
ONEWEB-0215             
1 48800U 21045AK  23254.29110926 -.00000159  00000+0 -45616-3 0  9999
2 48800  87.8945 100.2728 0002799  84.7977 275.3473 13.15546825112636
ONEWEB-0216             
1 48801U 21045AL  23254.30167286 -.00002316  00000+0 -61875-2 0  9994
2 48801  87.8946 100.3089 0001799  98.7742 261.3592 13.15561659112643
ONEWEB-0239             
1 48802U 21045AM  23253.62139898  .00000007  00000+0 -15473-4 0  9996
2 48802  87.8947 100.3954 0002719  80.9703 279.1734 13.15546037112614
ONEWEB-0249             
1 48967U 21060A   23254.05250399  .00002194  00000+0  57046-2 0  9991
2 48967  87.8999  69.8302 0002298  89.3840 270.7554 13.16581833107981
ONEWEB-0250             
1 48968U 21060B   23253.75275424  .00000117  00000+0  27168-3 0  9990
2 48968  87.8988  69.8759 0002086  87.0286 273.1083 13.16593581107921
ONEWEB-0252             
1 48970U 21060D   23253.55220753  .00000012  00000+0 -28484-5 0  9995
2 48970  87.8992  69.9234 0001721  96.1277 264.0050 13.16595688106678
ONEWEB-0253             
1 48971U 21060E   23253.54162882 -.00000105  00000+0 -30926-3 0  9999
2 48971  87.8997  70.0031 0002088  96.5026 263.6343 13.16596000106607
ONEWEB-0254             
1 48972U 21060F   23253.55009149  .00000034  00000+0  55683-4 0  9994
2 48972  87.8992  69.9130 0002065  91.9379 268.1989 13.16596101106603
ONEWEB-0255             
1 48973U 21060G   23253.74009518  .00000198  00000+0  48416-3 0  9992
2 48973  87.8990  69.9108 0001775  88.0881 272.0454 13.16592533107998
ONEWEB-0256             
1 48974U 21060H   23254.22138087 -.00000633  00000+0 -16884-2 0  9990
2 48974  87.8988  69.8200 0001606  98.2135 261.9178 13.16599057108029
ONEWEB-0257             
1 48975U 21060J   23254.40715798  .00001502  00000+0  38936-2 0  9997
2 48975  87.8982  69.7522 0001588 102.6525 257.4783 13.16607909108008
ONEWEB-0258             
1 48976U 21060K   23253.49731077 -.00000021  00000+0 -87766-4 0  9998
2 48976  87.8992  69.9633 0001827  87.1080 273.0260 13.16590290106606
ONEWEB-0259             
1 48977U 21060L   23253.79497907  .00000202  00000+0  49543-3 0  9992
2 48977  87.8992  69.8885 0002028  83.2644 276.8718 13.16594436107967
ONEWEB-0260             
1 48978U 21060M   23253.78861675  .00000012  00000+0 -19434-5 0  9997
2 48978  87.8994  69.9208 0001732 117.7163 242.4143 13.16595918107934
ONEWEB-0261             
1 48979U 21060N   23254.05884585 -.00000446  00000+0 -11997-2 0  9999
2 48979  87.9077  69.8318 0002350  97.8406 262.2991 13.16593479108048
ONEWEB-0262             
1 48980U 21060P   23253.58387712  .00000193  00000+0  46994-3 0  9991
2 48980  87.8992  69.9178 0002261  82.1769 277.9619 13.16592322106640
ONEWEB-0263             
1 48981U 21060Q   23253.53953217 -.00000264  00000+0 -72443-3 0  9995
2 48981  87.8990  69.9434 0002345  87.1737 272.9662 13.16596079106609
ONEWEB-0264             
1 48982U 21060R   23254.03246333 -.00000052  00000+0 -17034-3 0  9996
2 48982  87.9001  69.8453 0001790  90.5214 269.6122 13.16594659107961
ONEWEB-0266             
1 48984U 21060T   23253.52265336 -.00000007  00000+0 -50782-4 0  9993
2 48984  87.8990  69.9346 0001714  85.5653 274.5673 13.16596560106595
ONEWEB-0267             
1 48985U 21060U   23253.53319886 -.00000052  00000+0 -16958-3 0  9991
2 48985  87.8992  69.9336 0002085  99.4931 260.6436 13.16593601106600
ONEWEB-0268             
1 48986U 21060V   23254.03349764 -.00000006  00000+0 -48738-4 0  9997
2 48986  87.8999  69.8360 0001643  93.9639 266.1680 13.16598528108222
